*******************************************************************************
Ephemeris / WWW_USER Mon Mar 26 19:53:17 2018 Pasadena, USA      / Horizons    
*******************************************************************************
Target body name: Titania (703)                   {source: ura111}
Center body name: Uranus Barycenter (7)           {source: DE431mx}
Center-site name: BODY CENTER
*******************************************************************************
Start time      : A.D. 2000-Jan-01 00:00:00.0000 TDB
Stop  time      : A.D. 2001-Jan-01 00:00:00.0000 TDB
Step-size       : 7200 minutes
*******************************************************************************
Center geodetic : 0.00000000,0.00000000,0.0000000 {E-lon(deg),Lat(deg),Alt(km)}
Center cylindric: 0.00000000,0.00000000,0.0000000 {E-lon(deg),Dxy(km),Dz(km)}
Center radii    : (undefined)                                                  
Output units    : AU-D                                                         
Output type     : GEOMETRIC cartesian states
Output format   : 2 (position and velocity)
Reference frame : ICRF/J2000.0                                                 
Coordinate systm: Ecliptic and Mean Equinox of Reference Epoch                 
*******************************************************************************
JDTDB
   X     Y     Z
   VX    VY    VZ
*******************************************************************************
$$SOE
2451544.500000000 = A.D. 2000-Jan-01 00:00:00.0000 TDB 
   6.005545421368514E-04 -5.257031240922745E-04 -2.800239463159574E-03
  -2.012432363250165E-03  3.708740640403860E-04 -5.055767041128644E-04
2451549.500000000 = A.D. 2000-Jan-06 00:00:00.0000 TDB 
   6.947042186041664E-04  2.444398438138632E-04  2.823020794307258E-03
   1.992850923038440E-03 -5.011756910803389E-04 -4.515377847037441E-04
2451554.500000000 = A.D. 2000-Jan-11 00:00:00.0000 TDB 
  -1.878975231985588E-03  9.909099479304011E-05 -2.229727512538589E-03
  -1.547917981134531E-03  5.261248112157764E-04  1.323806418220987E-03
2451559.500000000 = A.D. 2000-Jan-16 00:00:00.0000 TDB 
   2.634065217886915E-03 -4.135139959691882E-04  1.173142151294023E-03
   7.785978289421879E-04 -4.393434608678974E-04 -1.908148072369177E-03
2451564.500000000 = A.D. 2000-Jan-21 00:00:00.0000 TDB 
  -2.844625728143074E-03  6.454933557814296E-04  1.475741295146861E-04
   1.652020349314390E-04  2.561542532302695E-04  2.079439868021161E-03
2451569.500000000 = A.D. 2000-Jan-26 00:00:00.0000 TDB 
   2.428478437902417E-03 -7.342322455892740E-04 -1.428454102776067E-03
  -1.072656097297713E-03 -1.960379134736534E-05 -1.814535085894422E-03
2451574.500000000 = A.D. 2000-Jan-31 00:00:00.0000 TDB 
  -1.509983978238892E-03  6.702719520550780E-04  2.408046695652806E-03
   1.743340648143312E-03 -2.206733782605238E-04  1.153388887031256E-03
2451579.500000000 = A.D. 2000-Feb-05 00:00:00.0000 TDB 
   2.522989826429893E-04 -4.583545647856275E-04 -2.865257527638196E-03
  -2.050848950044949E-03  4.154831024599969E-04 -2.483664499440462E-04
2451584.500000000 = A.D. 2000-Feb-10 00:00:00.0000 TDB 
   1.045590194929556E-03  1.529557750128239E-04  2.720521396915809E-03
   1.911320434193643E-03 -5.192700981860648E-04 -7.075420521027852E-04
2451589.500000000 = A.D. 2000-Feb-15 00:00:00.0000 TDB 
  -2.134392041375611E-03  1.906847924045021E-04 -1.977332621287857E-03
  -1.364541285373111E-03  5.132531999903691E-04  1.518652512074420E-03
2451594.500000000 = A.D. 2000-Feb-20 00:00:00.0000 TDB 
   2.751136212142361E-03 -4.875053898566647E-04  8.298721773108516E-04
   5.296966281397550E-04 -3.974420533288355E-04 -1.998907067623201E-03
2451599.500000000 = A.D. 2000-Feb-25 00:00:00.0000 TDB 
  -2.790365477410665E-03  6.857353986566108E-04  5.184655383614501E-04
   4.255399352965687E-04  1.947653892278656E-04  2.049531040068189E-03
2451604.500000000 = A.D. 2000-Mar-01 00:00:00.0000 TDB 
   2.225223145412272E-03 -7.316450902620407E-04 -1.727510355233118E-03
  -1.284810842973672E-03  4.711958980022555E-05 -1.671455035919671E-03
2451609.500000000 = A.D. 2000-Mar-06 00:00:00.0000 TDB 
  -1.188056232359761E-03  6.259600348360012E-04  2.595757413715207E-03
   1.866231861751070E-03 -2.802164825739122E-04  9.219336255754675E-04
2451614.500000000 = A.D. 2000-Mar-11 00:00:00.0000 TDB 
  -1.119984030940143E-04 -3.809143462539285E-04 -2.883578620741581E-03
  -2.059069385788716E-03  4.547652290920987E-04  1.811395263550437E-05
2451619.500000000 = A.D. 2000-Mar-16 00:00:00.0000 TDB 
   1.372254082949246E-03  6.090700140173010E-05  2.576197626053056E-03
   1.799288431839310E-03 -5.287428691006861E-04 -9.498694405567790E-04
2451624.500000000 = A.D. 2000-Mar-21 00:00:00.0000 TDB 
  -2.360916479249029E-03  2.810069152850510E-04 -1.688863167341827E-03
  -1.156109312187374E-03  4.913776540346558E-04  1.688661169356658E-03
2451629.500000000 = A.D. 2000-Mar-26 00:00:00.0000 TDB 
   2.818973373245856E-03 -5.516754881912805E-04  4.794997415096959E-04
   2.765504416758265E-04 -3.503890156233124E-04 -2.059730167198220E-03
2451634.500000000 = A.D. 2000-Mar-31 00:00:00.0000 TDB 
  -2.694329643160147E-03  7.153144648808221E-04  8.788007901837404E-04
   6.777825969885412E-04  1.300675915669793E-04  1.983428510828808E-03
2451639.500000000 = A.D. 2000-Apr-05 00:00:00.0000 TDB 
   1.977916150660312E-03 -7.167990208394584E-04 -2.008203381458463E-03
  -1.481517446627259E-03  1.146184320680896E-04 -1.498679224416477E-03
2451644.500000000 = A.D. 2000-Apr-10 00:00:00.0000 TDB 
  -8.522883166767065E-04  5.721031305455231E-04  2.737192359957909E-03
   1.958540173967880E-03 -3.347987391143588E-04  6.779586830770825E-04
2451649.500000000 = A.D. 2000-Apr-15 00:00:00.0000 TDB 
  -4.796258404408204E-04 -2.964310530282775E-04 -2.857003542606543E-03
  -2.030871147319958E-03  4.861794012906159E-04  2.855437012782006E-04
2451654.500000000 = A.D. 2000-Apr-20 00:00:00.0000 TDB 
   1.670850650428228E-03 -3.087136745513877E-05  2.389925675187884E-03
   1.662609817006948E-03 -5.305697115035911E-04 -1.176341795168851E-03
2451659.500000000 = A.D. 2000-Apr-25 00:00:00.0000 TDB 
  -2.548622009199355E-03  3.660934397609688E-04 -1.376994719777512E-03
  -9.282388945842585E-04  4.610678872013837E-04  1.829013305615440E-03
2451664.500000000 = A.D. 2000-Apr-30 00:00:00.0000 TDB 
   2.843264650707692E-03 -6.090403805902169E-04  1.095406325799595E-04
   1.291757652910051E-05 -2.965206987552020E-04 -2.088409466394245E-03
2451669.500000000 = A.D. 2000-May-05 00:00:00.0000 TDB 
  -2.554622451810605E-03  7.325066634130211E-04  1.219220681922928E-03
   9.173786168358775E-04  6.386405339814337E-05  1.886863681309312E-03
2451674.500000000 = A.D. 2000-May-10 00:00:00.0000 TDB 
   1.697514426084579E-03 -6.906745181407264E-04 -2.260401733599383E-03
  -1.652181056744302E-03  1.802394925557463E-04 -1.298626870821769E-03
2451679.500000000 = A.D. 2000-May-15 00:00:00.0000 TDB 
  -5.055515177267170E-04  5.090407641245855E-04  2.830347456309798E-03
   2.022214198346080E-03 -3.841841537891699E-04  4.262408636043169E-04
2451684.500000000 = A.D. 2000-May-20 00:00:00.0000 TDB 
  -8.352693696203094E-04 -2.082835919913993E-04 -2.785666203293896E-03
  -1.968249019103277E-03  5.091779613404425E-04  5.468993727012172E-04
2451689.500000000 = A.D. 2000-May-25 00:00:00.0000 TDB 
   1.951704090885594E-03 -1.248917619864997E-04  2.160017930793295E-03
   1.495476281955164E-03 -5.236358492727699E-04 -1.388080688922241E-03
2451694.500000000 = A.D. 2000-May-30 00:00:00.0000 TDB 
  -2.690564602720629E-03  4.437262344789606E-04 -1.046658718597211E-03
  -6.883155542601037E-04  4.239057427170487E-04  1.939490021138575E-03
2451699.500000000 = A.D. 2000-Jun-04 00:00:00.0000 TDB 
   2.824256832765891E-03 -6.572980427120054E-04 -2.633437724602467E-04
  -2.502455302765431E-04 -2.374612426614866E-04 -2.079492851264736E-03
2451704.500000000 = A.D. 2000-Jun-09 00:00:00.0000 TDB 
  -2.372377011829184E-03  7.369319419463067E-04  1.535385539169571E-03
   1.141811203900562E-03 -2.641685095576269E-06  1.764489558027629E-03
2451709.500000000 = A.D. 2000-Jun-14 00:00:00.0000 TDB 
   1.394756076512869E-03 -6.539923585766537E-04 -2.472420952881202E-03
  -1.794012209999469E-03  2.423469624614943E-04 -1.078474782835832E-03
2451714.500000000 = A.D. 2000-Jun-19 00:00:00.0000 TDB 
  -1.417762136144270E-04  4.363605519753073E-04  2.881672429943524E-03
   2.053058451667384E-03 -4.279974378615298E-04  1.628362412411149E-04
2451719.500000000 = A.D. 2000-Jun-24 00:00:00.0000 TDB 
  -1.171039391686284E-03 -1.179839156461703E-04 -2.667948113128013E-03
  -1.876166311896019E-03  5.241061856172385E-04  7.968884072226518E-04
2451724.500000000 = A.D. 2000-Jun-29 00:00:00.0000 TDB 
   2.202967486461560E-03 -2.168309534252136E-04  1.898664207736609E-03
   1.302389891218660E-03 -5.072778897623224E-04 -1.573349122351972E-03
2451729.500000000 = A.D. 2000-Jul-04 00:00:00.0000 TDB 
  -2.785300918284237E-03  5.133971641564379E-04 -6.991722266825681E-04
  -4.400916582380024E-04  3.809700209377488E-04  2.021876368420821E-03
2451734.500000000 = A.D. 2000-Jul-09 00:00:00.0000 TDB 
   2.760026451122582E-03 -6.941200877556656E-04 -6.254908989344035E-04
  -5.076134381503131E-04 -1.749630127374296E-04 -2.037025124125388E-03
2451739.500000000 = A.D. 2000-Jul-14 00:00:00.0000 TDB 
  -2.148784990356002E-03  7.302076864055042E-04  1.836766845671467E-03
   1.350735110640326E-03 -7.033872804990678E-05  1.609399445800334E-03
2451744.500000000 = A.D. 2000-Jul-19 00:00:00.0000 TDB 
   1.070667823297644E-03 -6.062895317336236E-04 -2.639359798759985E-03
  -1.907978854075936E-03  3.004446502519823E-04 -8.433485120102493E-04
2451749.500000000 = A.D. 2000-Jul-24 00:00:00.0000 TDB 
   2.217676480999010E-04  3.578057060705957E-04  2.890920435590662E-03
   2.046491215270351E-03 -4.637432182775893E-04 -1.016109500941586E-04
